[{"OBJECT_NAME":"STARLINK-31402","OBJECT_ID":"2024-057A","EPOCH":"2026-03-09T04:31:06.176352","MEAN_MOTION":15.27566123,"ECCENTRICITY":0.00020588,"INCLINATION":43.0084,"RA_OF_ASC_NODE":142.3019,"ARG_OF_PERICENTER":260.6014,"MEAN_ANOMALY":99.4605,"EPHEMERIS_TYPE":0,"CLASSIFICATION_TYPE":"U","NORAD_CAT_ID":59320,"ELEMENT_SET_NO":999,"REV_AT_EPOCH":11029,"BSTAR":-0.00013527715,"MEAN_MOTION_DOT":-3.982e-5,"MEAN_MOTION_DDOT":0},{"OBJECT_NAME":"FENGYUN 1C DEB","OBJECT_ID":"1999-025CUF","EPOCH":"2026-03-09T01:34:38.628768","MEAN_MOTION":15.17132493,"ECCENTRICITY":0.01273829,"INCLINATION":98.8955,"RA_OF_ASC_NODE":293.2327,"ARG_OF_PERICENTER":89.1897,"MEAN_ANOMALY":272.3925,"EPHEMERIS_TYPE":0,"CLASSIFICATION_TYPE":"U","NORAD_CAT_ID":32185,"ELEMENT_SET_NO":999,"REV_AT_EPOCH":96318,"BSTAR":0.0036969643,"MEAN_MOTION_DOT":0.00091378,"MEAN_MOTION_DDOT":0}]
